[{"OBJECT_NAME":"STARLINK-32355","OBJECT_ID":"2024-191P","EPOCH":"2026-03-09T22:59:23.716896","MEAN_MOTION":15.27569755,"ECCENTRICITY":5.962e-5,"INCLINATION":43.0008,"RA_OF_ASC_NODE":156.7849,"ARG_OF_PERICENTER":284.8532,"MEAN_ANOMALY":75.2253,"EPHEMERIS_TYPE":0,"CLASSIFICATION_TYPE":"U","NORAD_CAT_ID":61634,"ELEMENT_SET_NO":999,"REV_AT_EPOCH":7753,"BSTAR":7.0839112e-5,"MEAN_MOTION_DOT":1.687e-5,"MEAN_MOTION_DDOT":0},{"OBJECT_NAME":"CZ-6A DEB","OBJECT_ID":"2024-140RA","EPOCH":"2026-03-09T01:51:18.259488","MEAN_MOTION":15.31763252,"ECCENTRICITY":0.00411794,"INCLINATION":89.1856,"RA_OF_ASC_NODE":296.0787,"ARG_OF_PERICENTER":96.6516,"MEAN_ANOMALY":263.9425,"EPHEMERIS_TYPE":0,"CLASSIFICATION_TYPE":"U","NORAD_CAT_ID":61156,"ELEMENT_SET_NO":999,"REV_AT_EPOCH":8391,"BSTAR":0.0079173326,"MEAN_MOTION_DOT":0.00256788,"MEAN_MOTION_DDOT":0}]
